{"epoch":1784902576,"count":18312,"objects":[{"id":"45157","name":"ONEWEB-0053","type":"PAYLOAD","l1":"1 45157U 20008AC  26205.23335427 -.00000635  00000-0 -18551-2 0  9994","l2":"2 45157  87.8814  28.8993 0001317  84.2800 275.8477 13.10372353312760"},{"id":"45158","name":"ONEWEB-0054","type":"PAYLOAD","l1":"1 45158U 20008AD  26205.03992982  .00000717  00000-0  20179-2 0  9996","l2":"2 45158  87.8834  28.9227 0001660  95.2840 264.8477 13.10375300312854"},{"id":"45159","name":"ONEWEB-0056","type":"PAYLOAD","l1":"1 45159U 20008AE  26205.24000209 -.00000497  00000-0 -14611-2 0  9993","l2":"2 45159  87.8828  28.8780 0001960  83.0753 277.0597 13.10374242313036"},{"id":"45160","name":"ONEWEB-0057","type":"PAYLOAD","l1":"1 45160U 20008AF  26205.02819710  .00000422  00000-0  11712-2 0  9991","l2":"2 45160  87.8825  28.9311 0001357  79.1927 280.9353 13.10375291313178"},{"id":"45161","name":"ONEWEB-0058","type":"PAYLOAD","l1":"1 45161U 20008AG  26205.01461766 -.00000235  00000-0 -71054-3 0  9995","l2":"2 45161  87.8820  28.9370 0001925  96.0798 264.0549 13.10377509313246"},{"id":"45162","name":"ONEWEB-0059","type":"PAYLOAD","l1":"1 45162U 20008AH  26205.01122328 -.00000481  00000-0 -14153-2 0  9993","l2":"2 45162  87.8819  28.9379 0001569  93.0969 267.0338 13.10376801313147"},{"id":"45163","name":"ONEWEB-0062","type":"PAYLOAD","l1":"1 45163U 20008AJ  26205.03471691  .00000598  00000-0  16754-2 0  9992","l2":"2 45163  87.8830  28.9229 0002152  91.6994 268.4380 13.10373894313013"},{"id":"45164","name":"ONEWEB-0065","type":"PAYLOAD","l1":"1 45164U 20008AK  26205.06861969 -.00000397  00000-0 -11729-2 0  9993","l2":"2 45164  87.8822  28.9234 0001667  81.7677 278.3639 13.10370352312718"},{"id":"45424","name":"ONEWEB-0066","type":"PAYLOAD","l1":"1 45424U 20020A   26204.99801686  .00000570  00000-0  15720-2 0  9993","l2":"2 45424  87.8888  13.7406 0001810  95.2846 264.8488 13.11414854307500"},{"id":"45425","name":"ONEWEB-0067","type":"PAYLOAD","l1":"1 45425U 20020B   26205.18827346 -.00000482  00000-0 -13958-2 0  9992","l2":"2 45425  87.8913  13.6319 0001618  89.0030 271.1284 13.11425700307589"},{"id":"45426","name":"ONEWEB-0080","type":"PAYLOAD","l1":"1 45426U 20020C   26204.95918582 -.00000499  00000-0 -14428-2 0  9991","l2":"2 45426  87.8905  13.7489 0002086  96.6414 263.4951 13.11416038307523"},{"id":"45427","name":"ONEWEB-0090","type":"PAYLOAD","l1":"1 45427U 20020D   26205.21689735  .00000254  00000-0  68154-3 0  9990","l2":"2 45427  87.8914  13.7004 0001802  95.4902 264.6432 13.11417848307528"},{"id":"45428","name":"ONEWEB-0061","type":"PAYLOAD","l1":"1 45428U 20020E   26205.01993385 -.00000154  00000-0 -46897-3 0  9999","l2":"2 45428  87.8897  13.7247 0001797  93.7403 266.3930 13.11416382307454"},{"id":"45429","name":"ONEWEB-0081","type":"PAYLOAD","l1":"1 45429U 20020F   26205.23032568  .00000597  00000-0  16479-2 0  9992","l2":"2 45429  87.8890  13.6919 0001664  94.7887 265.3431 13.11416801307599"},{"id":"45430","name":"ONEWEB-0069","type":"PAYLOAD","l1":"1 45430U 20020G   26204.39287595 -.00001005  00000-0 -28702-2 0  9991","l2":"2 45430  87.8895  13.8627 0001630  94.0407 266.0907 13.11424044307413"},{"id":"45431","name":"ONEWEB-0031","type":"PAYLOAD","l1":"1 45431U 20020H   26205.03872838 -.00000469  00000-0 -13602-2 0  9990","l2":"2 45431  87.8887  13.7357 0001964  93.6686 266.4666 13.11418899307482"},{"id":"45432","name":"ONEWEB-0027","type":"PAYLOAD","l1":"1 45432U 20020J   26204.40664178  .00000040  00000-0  69521-4 0  9993","l2":"2 45432  87.9159 358.6612 0002196  90.1415 269.9968 13.17648522311124"},{"id":"45433","name":"ONEWEB-0064","type":"PAYLOAD","l1":"1 45433U 20020K   26205.03702861 -.00000468  00000-0 -13577-2 0  9990","l2":"2 45433  87.8893  13.7293 0001976  91.4985 268.6370 13.11416865307512"},{"id":"45434","name":"ONEWEB-0018","type":"PAYLOAD","l1":"1 45434U 20020L   26205.22170429  .00000494  00000-0  13567-2 0  9997","l2":"2 45434  87.8895  13.6922 0001801 104.7003 255.4324 13.11418185307485"},{"id":"45435","name":"ONEWEB-0083","type":"PAYLOAD","l1":"1 45435U 20020M   26204.98291812  .00000242  00000-0  64791-3 0  9997","l2":"2 45435  87.8899  13.7355 0001861  93.6087 266.5254 13.11419175307491"},{"id":"45436","name":"ONEWEB-0095","type":"PAYLOAD","l1":"1 45436U 20020N   26204.97443844 -.00000132  00000-0 -40813-3 0  9990","l2":"2 45436  87.8906  13.7458 0002039  72.9133 287.2218 13.11418217307491"},{"id":"45437","name":"ONEWEB-0092","type":"PAYLOAD","l1":"1 45437U 20020P   26205.00498209  .00000638  00000-0  17633-2 0  9993","l2":"2 45437  87.8898  13.7306 0001783  98.0136 262.1194 13.11416016307615"},{"id":"45438","name":"ONEWEB-0085","type":"PAYLOAD","l1":"1 45438U 20020Q   26204.90634197  .00000209  00000-0  55273-3 0  9997","l2":"2 45438  87.8896  13.7553 0001814  91.4313 268.7023 13.11419713307482"},{"id":"45439","name":"ONEWEB-0096","type":"PAYLOAD","l1":"1 45439U 20020R   26205.21336554  .00000235  00000-0  62638-3 0  9991","l2":"2 45439  87.8900  13.6920 0001833  88.3202 271.8136 13.11419109307512"},{"id":"45440","name":"ONEWEB-0037","type":"PAYLOAD","l1":"1 45440U 20020S   26205.01000663  .00000289  00000-0  77749-3 0  9998","l2":"2 45440  87.8904  13.7059 0001901  87.1778 272.9567 13.11653698307527"},{"id":"45441","name":"ONEWEB-0042","type":"PAYLOAD","l1":"1 45441U 20020T   26204.97416040 -.00000150  00000-0 -45890-3 0  9994","l2":"2 45441  87.8899  13.7363 0001710  92.1170 268.0154 13.11419457307485"},{"id":"45442","name":"ONEWEB-0098","type":"PAYLOAD","l1":"1 45442U 20020U   26204.97006217 -.00000357  00000-0 -10424-2 0  9999","l2":"2 45442  87.8907  13.7459 0001905  94.3540 265.7806 13.11417311307466"},{"id":"45443","name":"ONEWEB-0055","type":"PAYLOAD","l1":"1 45443U 20020V   26204.94873045 -.00000271  00000-0 -79964-3 0  9998","l2":"2 45443  87.8897  13.7491 0001917  92.2575 267.8773 13.11415765307433"},{"id":"45444","name":"ONEWEB-0093","type":"PAYLOAD","l1":"1 45444U 20020W   26204.93917598  .00000126  00000-0  32188-3 0  9994","l2":"2 45444  87.8888  13.7492 0001656  92.5434 267.5883 13.10890602307493"},{"id":"45445","name":"ONEWEB-0029","type":"PAYLOAD","l1":"1 45445U 20020X   26205.03209403 -.00000424  00000-0 -12333-2 0  9998","l2":"2 45445  87.8886  13.7319 0001609  96.8719 263.2592 13.11415245307487"}]}