OBJECT_NAME,OBJECT_ID,EPOCH,MEAN_MOTION,ECCENTRICITY,INCLINATION,RA_OF_ASC_NODE,ARG_OF_PERICENTER,MEAN_ANOMALY,EPHEMERIS_TYPE,CLASSIFICATION_TYPE,NORAD_CAT_ID,ELEMENT_SET_NO,REV_AT_EPOCH,BSTAR,MEAN_MOTION_DOT,MEAN_MOTION_DDOT
ONEWEB-0053,2020-008AC,2026-07-24T05:36:01.808928,13.10372353,.00013172,87.8814,28.8993,84.2800,275.8477,0,U,45157,999,31276,-.18551003E-2,-.635E-5,0
ONEWEB-0054,2020-008AD,2026-07-24T00:57:29.936448,13.10375300,.00016602,87.8834,28.9227,95.2840,264.8477,0,U,45158,999,31285,.20178838E-2,.717E-5,0
ONEWEB-0056,2020-008AE,2026-07-24T05:45:36.180576,13.10374242,.00019603,87.8828,28.8780,83.0753,277.0597,0,U,45159,999,31303,-.14610971E-2,-.497E-5,0
ONEWEB-0057,2020-008AF,2026-07-24T00:40:36.229440,13.10375291,.00013572,87.8825,28.9311,79.1927,280.9353,0,U,45160,999,31317,.11712136E-2,.422E-5,0
ONEWEB-0058,2020-008AG,2026-07-24T00:21:02.965824,13.10377509,.00019248,87.8820,28.9370,96.0798,264.0549,0,U,45161,999,31324,-.71054423E-3,-.235E-5,0
ONEWEB-0059,2020-008AH,2026-07-24T00:16:09.691392,13.10376801,.00015687,87.8819,28.9379,93.0969,267.0338,0,U,45162,999,31314,-.14153488E-2,-.481E-5,0
ONEWEB-0062,2020-008AJ,2026-07-24T00:49:59.541024,13.10373894,.0002152,87.8830,28.9229,91.6994,268.4380,0,U,45163,999,31301,.16754022E-2,.598E-5,0
ONEWEB-0065,2020-008AK,2026-07-24T01:38:48.741216,13.10370352,.00016666,87.8822,28.9234,81.7677,278.3639,0,U,45164,999,31271,-.11728609E-2,-.397E-5,0
ONEWEB-0066,2020-020A,2026-07-23T23:57:08.656704,13.11414854,.00018103,87.8888,13.7406,95.2846,264.8488,0,U,45424,999,30750,.15720031E-2,.57E-5,0
ONEWEB-0067,2020-020B,2026-07-24T04:31:06.826944,13.11425700,.00016185,87.8913,13.6319,89.0030,271.1284,0,U,45425,999,30758,-.13958368E-2,-.482E-5,0
ONEWEB-0080,2020-020C,2026-07-23T23:01:13.654848,13.11416038,.00020859,87.8905,13.7489,96.6414,263.4951,0,U,45426,999,30752,-.14428391E-2,-.499E-5,0
ONEWEB-0090,2020-020D,2026-07-24T05:12:19.931040,13.11417848,.00018019,87.8914,13.7004,95.4902,264.6432,0,U,45427,999,30752,.68154297E-3,.254E-5,0
ONEWEB-0061,2020-020E,2026-07-24T00:28:42.284640,13.11416382,.00017972,87.8897,13.7247,93.7403,266.3930,0,U,45428,999,30745,-.46897116E-3,-.154E-5,0
ONEWEB-0081,2020-020F,2026-07-24T05:31:40.138752,13.11416801,.00016638,87.8890,13.6919,94.7887,265.3431,0,U,45429,999,30759,.16478513E-2,.597E-5,0
ONEWEB-0069,2020-020G,2026-07-23T09:25:44.482080,13.11424044,.000163,87.8895,13.8627,94.0407,266.0907,0,U,45430,999,30741,-.28702E-2,-.1005E-4,0
ONEWEB-0031,2020-020H,2026-07-24T00:55:46.132032,13.11418899,.00019638,87.8887,13.7357,93.6686,266.4666,0,U,45431,999,30748,-.1360171E-2,-.469E-5,0
ONEWEB-0027,2020-020J,2026-07-23T09:45:33.849792,13.17648522,.0002196,87.9159,358.6612,90.1415,269.9968,0,U,45432,999,31112,.69521E-4,.4E-6,0
ONEWEB-0064,2020-020K,2026-07-24T00:53:19.271904,13.11416865,.00019761,87.8893,13.7293,91.4985,268.6370,0,U,45433,999,30751,-.13576968E-2,-.468E-5,0
ONEWEB-0018,2020-020L,2026-07-24T05:19:15.250656,13.11418185,.00018012,87.8895,13.6922,104.7003,255.4324,0,U,45434,999,30748,.13567282E-2,.494E-5,0
ONEWEB-0083,2020-020M,2026-07-23T23:35:24.125568,13.11419175,.00018606,87.8899,13.7355,93.6087,266.5254,0,U,45435,999,30749,.64791456E-3,.242E-5,0
ONEWEB-0095,2020-020N,2026-07-23T23:23:11.481216,13.11418217,.0002039,87.8906,13.7458,72.9133,287.2218,0,U,45436,999,30749,-.40813126E-3,-.132E-5,0
ONEWEB-0092,2020-020P,2026-07-24T00:07:10.452576,13.11416016,.00017832,87.8898,13.7306,98.0136,262.1194,0,U,45437,999,30761,.17633093E-2,.638E-5,0
ONEWEB-0085,2020-020Q,2026-07-23T21:45:07.946208,13.11419713,.00018138,87.8896,13.7553,91.4313,268.7023,0,U,45438,999,30748,.55272668E-3,.209E-5,0
ONEWEB-0096,2020-020R,2026-07-24T05:07:14.782656,13.11419109,.00018329,87.8900,13.6920,88.3202,271.8136,0,U,45439,999,30751,.62637991E-3,.235E-5,0
ONEWEB-0037,2020-020S,2026-07-24T00:14:24.572832,13.11653698,.00019012,87.8904,13.7059,87.1778,272.9567,0,U,45440,999,30752,.77749399E-3,.289E-5,0
ONEWEB-0042,2020-020T,2026-07-23T23:22:47.458560,13.11419457,.00017103,87.8899,13.7363,92.1170,268.0154,0,U,45441,999,30748,-.4589025E-3,-.15E-5,0
ONEWEB-0098,2020-020U,2026-07-23T23:16:53.371488,13.11417311,.00019054,87.8907,13.7459,94.3540,265.7806,0,U,45442,999,30746,-.1042419E-2,-.357E-5,0
ONEWEB-0055,2020-020V,2026-07-23T22:46:10.310880,13.11415765,.00019173,87.8897,13.7491,92.2575,267.8773,0,U,45443,999,30743,-.79963812E-3,-.271E-5,0
ONEWEB-0093,2020-020W,2026-07-23T22:32:24.804672,13.10890602,.00016559,87.8888,13.7492,92.5434,267.5883,0,U,45444,999,30749,.32187859E-3,.126E-5,0
ONEWEB-0029,2020-020X,2026-07-24T00:46:12.924192,13.11415245,.00016087,87.8886,13.7319,96.8719,263.2592,0,U,45445,999,30748,-.12332695E-2,-.424E-5,0
